$$SOE
2461295.500000000, A.D. 2026-Sep-12 00:00:00.0000, -5.154645216583836E+08, -3.202909214672534E+07, 1.010551979645124E+07,
2461302.500000000, A.D. 2026-Sep-19 00:00:00.0000, -5.141162169652926E+08, -4.121317487107980E+07, 9.925730156050853E+06,
2461309.500000000, A.D. 2026-Sep-26 00:00:00.0000, -5.125860833593324E+08, -5.038262235197151E+07, 9.742430428184584E+06,
2461316.500000000, A.D. 2026-Oct-03 00:00:00.0000, -5.108739107693539E+08, -5.953412140652832E+07, 9.555671243336661E+06,
2461323.500000000, A.D. 2026-Oct-10 00:00:00.0000, -5.089795370255009E+08, -6.866433604477823E+07, 9.365504579503093E+06,
2461330.500000000, A.D. 2026-Oct-17 00:00:00.0000, -5.069028488937191E+08, -7.776990753094441E+07, 9.171983785768416E+06,
2461337.500000000, A.D. 2026-Oct-24 00:00:00.0000, -5.046437831516795E+08, -8.684745456670602E+07, 8.975163598440766E+06,
2461344.500000000, A.D. 2026-Oct-31 00:00:00.0000, -5.022023276072702E+08, -9.589357366472113E+07, 8.775100135342281E+06,
2461351.500000000, A.D. 2026-Nov-07 00:00:00.0000, -4.995785217204812E+08, -1.049048396399905E+08, 8.571850843354192E+06,
2461358.500000000, A.D. 2026-Nov-14 00:00:00.0000, -4.967724566274247E+08, -1.138778053333492E+08, 8.365474453495473E+06,
2461365.500000000, A.D. 2026-Nov-21 00:00:00.0000, -4.937842763776495E+08, -1.228089998872418E+08, 8.156031165608458E+06,
2461372.500000000, A.D. 2026-Nov-28 00:00:00.0000, -4.906141813830132E+08, -1.316949285843896E+08, 7.943582908524029E+06,
2461379.500000000, A.D. 2026-Dec-05 00:00:00.0000, -4.872624304595427E+08, -1.405320749077545E+08, 7.728193290334284E+06,
2461386.500000000, A.D. 2026-Dec-12 00:00:00.0000, -4.837293412970313E+08, -1.493169017120316E+08, 7.509927478229545E+06,
2461393.500000000, A.D. 2026-Dec-19 00:00:00.0000, -4.800152912421283E+08, -1.580458515020552E+08, 7.288852181773104E+06,
2461400.500000000, A.D. 2026-Dec-26 00:00:00.0000, -4.761207185364695E+08, -1.667153466889474E+08, 7.065035681850061E+06,
2461407.500000000, A.D. 2027-Jan-02 00:00:00.0000, -4.720461237342354E+08, -1.753217900178630E+08, 6.838547864452511E+06,
2461414.500000000, A.D. 2027-Jan-09 00:00:00.0000, -4.677920711828613E+08, -1.838615651498173E+08, 6.609460250284418E+06,
2461421.500000000, A.D. 2027-Jan-16 00:00:00.0000, -4.633591905323908E+08, -1.923310373912879E+08, 6.377846017698988E+06,
2461428.500000000, A.D. 2027-Jan-23 00:00:00.0000, -4.587481782284282E+08, -2.007265546136512E+08, 6.143780011493579E+06,
2461435.500000000, A.D. 2027-Jan-30 00:00:00.0000, -4.539597988018740E+08, -2.090444484124517E+08, 5.907338716371715E+06,
2461442.500000000, A.D. 2027-Feb-06 00:00:00.0000, -4.489948855311361E+08, -2.172810351683204E+08, 5.668600183798864E+06,
2461449.500000000, A.D. 2027-Feb-13 00:00:00.0000, -4.438543409364650E+08, -2.254326157914831E+08, 5.427644054006308E+06,
2461456.500000000, A.D. 2027-Feb-20 00:00:00.0000, -4.385391394684777E+08, -2.334954749431166E+08, 5.184551825054988E+06,
2461463.500000000, A.D. 2027-Feb-27 00:00:00.0000, -4.330503309935200E+08, -2.414658829508850E+08, 4.939406977952078E+06,
2461470.500000000, A.D. 2027-Mar-06 00:00:00.0000, -4.273890420572333E+08, -2.493400984999475E+08, 4.692294837832540E+06,
2461477.500000000, A.D. 2027-Mar-13 00:00:00.0000, -4.215564765255360E+08, -2.571143700531192E+08, 4.443302485226452E+06,
2461484.500000000, A.D. 2027-Mar-20 00:00:00.0000, -4.155539167308955E+08, -2.647849368378847E+08, 4.192518752505600E+06,
2461491.500000000, A.D. 2027-Mar-27 00:00:00.0000, -4.093827249205022E+08, -2.723480299524267E+08, 3.940034241815239E+06,
2461498.500000000, A.D. 2027-Apr-03 00:00:00.0000, -4.030443448021754E+08, -2.797998736413656E+08, 3.685941341732129E+06,
2461505.500000000, A.D. 2027-Apr-10 00:00:00.0000, -3.965403031250764E+08, -2.871366867205779E+08, 3.430334238757059E+06,
2461512.500000000, A.D. 2027-Apr-17 00:00:00.0000, -3.898722112707017E+08, -2.943546841674790E+08, 3.173308920337915E+06,
2461519.500000000, A.D. 2027-Apr-24 00:00:00.0000, -3.830417667717778E+08, -3.014500789409474E+08, 2.914963156977892E+06,
2461526.500000000, A.D. 2027-May-01 00:00:00.0000, -3.760507544557516E+08, -3.084190840051664E+08, 2.655396438124061E+06,
2461533.500000000, A.D. 2027-May-08 00:00:00.0000, -3.689010469013560E+08, -3.152579138111045E+08, 2.394709894720867E+06,
2461540.500000000, A.D. 2027-May-15 00:00:00.0000, -3.615946057003672E+08, -3.219627842843491E+08, 2.133006423542261E+06,
2461547.500000000, A.D. 2027-May-22 00:00:00.0000, -3.541334850833597E+08, -3.285299139137916E+08, 1.870390944784001E+06,
2461554.500000000, A.D. 2027-May-29 00:00:00.0000, -3.465198345495575E+08, -3.349555274133660E+08, 1.606970365007639E+06,
2461561.500000000, A.D. 2027-Jun-05 00:00:00.0000, -3.387558996126921E+08, -3.412358588284113E+08, 1.342853420247450E+06,
2461568.500000000, A.D. 2027-Jun-12 00:00:00.0000, -3.308440226662883E+08, -3.473671536569033E+08, 1.078150618771568E+06,
2461575.500000000, A.D. 2027-Jun-19 00:00:00.0000, -3.227866442943842E+08, -3.533456709223022E+08, 8.129742374856919E+05,
2461582.500000000, A.D. 2027-Jun-26 00:00:00.0000, -3.145863047428879E+08, -3.591676854613551E+08, 5.474383249831200E+05,
2461589.500000000, A.D. 2027-Jul-03 00:00:00.0000, -3.062456454141272E+08, -3.648294904208118E+08, 2.816586998050958E+05,
2461596.500000000, A.D. 2027-Jul-10 00:00:00.0000, -2.977674103424913E+08, -3.703273999563432E+08, 1.575294131103158E+04,
2461603.500000000, A.D. 2027-Jul-17 00:00:00.0000, -2.891544476092652E+08, -3.756577521740549E+08, -2.501596332303286E+05,
2461610.500000000, A.D. 2027-Jul-24 00:00:00.0000, -2.804097105342139E+08, -3.808169123785263E+08, -5.159580246868730E+05,
2461617.500000000, A.D. 2027-Jul-31 00:00:00.0000, -2.715362582260522E+08, -3.858012763926739E+08, -7.815196596305668E+05,
2461624.500000000, A.D. 2027-Aug-07 00:00:00.0000, -2.625372556856632E+08, -3.906072727980310E+08, -1.046720436838061E+06,
2461631.500000000, A.D. 2027-Aug-14 00:00:00.0000, -2.534159757555265E+08, -3.952313643484922E+08, -1.311434522430480E+06,
2461638.500000000, A.D. 2027-Aug-21 00:00:00.0000, -2.441758022889934E+08, -3.996700519219019E+08, -1.575534225503027E+06,
2461645.500000000, A.D. 2027-Aug-28 00:00:00.0000, -2.348202311009431E+08, -4.039198798072699E+08, -1.838890170839995E+06,
2461652.500000000, A.D. 2027-Sep-04 00:00:00.0000, -2.253528698739197E+08, -4.079774398253441E+08, -2.101371456106097E+06,
2461659.500000000, A.D. 2027-Sep-11 00:00:00.0000, -2.157774384073201E+08, -4.118393749425515E+08, -2.362845719862968E+06,
2461666.500000000, A.D. 2027-Sep-18 00:00:00.0000, -2.060977690680563E+08, -4.155023830264954E+08, -2.623179186140865E+06,
2461673.500000000, A.D. 2027-Sep-25 00:00:00.0000, -1.963178072050801E+08, -4.189632208184181E+08, -2.882236713354528E+06,
2461680.500000000, A.D. 2027-Oct-02 00:00:00.0000, -1.864416114440547E+08, -4.222187080927312E+08, -3.139881852660120E+06,
2461687.500000000, A.D. 2027-Oct-09 00:00:00.0000, -1.764733538314731E+08, -4.252657320052235E+08, -3.395976918561488E+06,
2461694.500000000, A.D. 2027-Oct-16 00:00:00.0000, -1.664173197570035E+08, -4.281012516805760E+08, -3.650383082301646E+06,
2461701.500000000, A.D. 2027-Oct-23 00:00:00.0000, -1.562779073856417E+08, -4.307223030389971E+08, -3.902960512510121E+06,
2461708.500000000, A.D. 2027-Oct-30 00:00:00.0000, -1.460596262154188E+08, -4.331260032446190E+08, -4.153568547741741E+06,
2461715.500000000, A.D. 2027-Nov-06 00:00:00.0000, -1.357670959135727E+08, -4.353095536400641E+08, -4.402065702197939E+06,
2461722.500000000, A.D. 2027-Nov-13 00:00:00.0000, -1.254050474054226E+08, -4.372702432362956E+08, -4.648309492507994E+06,
2461729.500000000, A.D. 2027-Nov-20 00:00:00.0000, -1.149783233035049E+08, -4.390054549382765E+08, -4.892156530684143E+06,
2461736.500000000, A.D. 2027-Nov-27 00:00:00.0000, -1.044918760509486E+08, -4.405126715374837E+08, -5.133462789475769E+06,
2461743.500000000, A.D. 2027-Dec-04 00:00:00.0000, -9.395076579560898E+07, -4.417894805508769E+08, -5.372083779777527E+06,
2461750.500000000, A.D. 2027-Dec-11 00:00:00.0000, -8.336015853851834E+07, -4.428335788613162E+08, -5.607874668233514E+06,
2461757.500000000, A.D. 2027-Dec-18 00:00:00.0000, -7.272532427430774E+07, -4.436427774877866E+08, -5.840690387810946E+06,
2461764.500000000, A.D. 2027-Dec-25 00:00:00.0000, -6.205163496385100E+07, -4.442150064757183E+08, -6.070385755339056E+06,
2461771.500000000, A.D. 2028-Jan-01 00:00:00.0000, -5.134456228975761E+07, -4.445483198805069E+08, -6.296815598522246E+06,
$$EOE